AKEBONO (EXOS-D)        
1 19822U 89016A   20258.39415481  .00026254  31178-6  45285-3 0  9990
2 19822  75.0066 318.6829 1714672 160.2843 207.3783 12.12006492 50368
HST                     
1 20580U 90037B   20258.13060185  .00000377  00000-0  11939-4 0  9999
2 20580  28.4695  93.1285 0002606 329.1998 324.1107 15.09430382469376
POLAR                   
1 23802U 96013A   20255.95189617  .00000264  00000-0  00000-0 0  9996
2 23802  78.7084 248.7242 6243005 280.4320  18.9652  1.29846497117537
SWAS                    
1 25560U 98071A   20258.44274470  .00000085  00000-0  16570-4 0  9998
2 25560  69.8991 159.7440 0009655 223.5708 136.4686 14.93905631182314
ORSTED                  
1 25635U 99008B   20258.56054705  .00000095  00000-0  29663-4 0  9990
2 25635  96.4461 261.8502 0140320  66.5111 295.0763 14.48222106137516
CXO                     
1 25867U 99040B   20261.72517393  .00000785  00000-0  00000-0 0  9998
2 25867  60.8621 264.5015 7884645 227.2343   0.4834  0.37814826  9402
XMM-NEWTON              
1 25989U 99066A   20259.29888031  .00000254  00000-0  00000-0 0  9991
2 25989  71.0854 318.7053 6996104  92.5490   0.2212  0.50136145 12477
TERRA                   
1 25994U 99068A   20258.50948216  .00000004  00000-0  10874-4 0  9991
2 25994  98.2071 331.5303 0001531 104.9692 255.1680 14.57114748103280
CLUSTER II-FM7 (SAMBA)  
1 26410U 00041A   20259.82368455 -.00000091  00000-0  00000-0 0  9998
2 26410 132.0641 342.3258 4505025 185.5661   0.2130  0.44190363 10986
CLUSTER II-FM6 (SALSA)  
1 26411U 00041B   20259.92138285 -.00000235  00000-0  00000-0 0  9996
2 26411 132.1797 343.6987 5841916 191.1965   0.3048  0.44215679 11029
CLUSTER II-FM5 (RUMBA)  
1 26463U 00045A   20259.88082407 -.00000157  00000-0  00000-0 0  9999
2 26463 135.8188 343.4099 5438533 191.0147   0.3236  0.44215154 10914
CLUSTER II-FM8 (TANGO)  
1 26464U 00045B   20259.81280670 -.00000091  00000-0  00000-0 0  9992
2 26464 132.0668 342.3211 4501128 185.5596   0.2116  0.44218896 10997
ODIN                    
1 26702U 01007A   20258.56243892 -.00000213  00000-0 -97635-5 0  9994
2 26702  97.5534 274.0340 0010147 329.7403  30.3238 15.08143236 69640
TIMED                   
1 26998U 01055B   20258.33428433  .00000068  00000-0  11376-4 0  9998
2 26998  74.0712 116.2611 0001474 221.5140 138.5929 14.88213459 17680
RHESSI                  
1 27370U 02004A   20258.51792386  .00001760  00000-0  58132-4 0  9990
2 27370  38.0340 355.9066 0012376 339.1779  20.8487 15.33094683 28002
INTEGRAL                
1 27540U 02048A   20257.26039651  .00000501  00000-0  00000+0 0  9995
2 27540  56.6584 106.7455 8979555 294.0728   1.9267  0.37585060 18729
CORIOLIS                
1 27640U 03001A   20258.54875514 -.00000004  00000-0  18970-4 0  9993
2 27640  98.7273 266.6303 0014907 137.4738 332.2505 14.19046484916071
SORCE                   
1 27651U 03004A   20258.30204364  .00000032  00000-0  17455-4 0  9998
2 27651  39.9950 194.5382 0023684 282.3248  77.4890 14.89145385957444
MOST                    
1 27843U 03031D   20258.50864006 -.00000004  00000-0  18538-4 0  9991
2 27843  98.7113 264.5152 0009735 190.6303 169.4670 14.20617157892248
SCISAT 1                
1 27858U 03036A   20258.44912122 -.00000001  00000-0  48918-5 0  9991
2 27858  73.9353   9.3253 0008300 204.9318 155.1456 14.77300004920792
SWIFT                   
1 28485U 04047A   20258.29219177  .00000782  00000-0  22824-4 0  9996
2 28485  20.5562 122.9388 0011212 100.8074 259.3622 15.04672616866893
FORMOSAT-3 FM6          
1 29047U 06011A   20258.53555178 -.00000056  00000-0 -53812-5 0  9993
2 29047  71.9752 288.1690 0052475 268.4686  91.0439 14.28745612754048
FORMOSAT-3 FM1          
1 29048U 06011B   20258.27637918  .00000045  00000-0  34130-4 0  9995
2 29048  71.9667 199.5014 0045214 228.6112 131.1134 14.28716184756495
FORMOSAT-3 FM5          
1 29049U 06011C   20258.55248073 -.00000034  00000-0  29180-5 0  9996
2 29049  72.0229  11.0922 0036754 253.4024 106.3075 14.28795610752322
FORMOSAT-3 FM3          
1 29050U 06011D   20258.41598762  .00000131  00000-0  37880-4 0  9998
2 29050  72.0159 148.3748 0049301 165.2286 195.0321 14.58945698769309
FORMOSAT-3 FM4          
1 29051U 06011E   20258.48073763  .00000080  00000-0  46654-4 0  9997
2 29051  72.0033 273.1238 0066621 132.1141 228.5686 14.28828743754903
FORMOSAT-3 FM2          
1 29052U 06011F   20258.54375647  .00000052  00000-0  36711-4 0  9993
2 29052  72.0367 347.4669 0041092 213.8838 145.9673 14.28934737752426
CLOUDSAT                
1 29107U 06016A   20258.52090305  .00000072  00000-0  23576-4 0  9999
2 29107  98.2380 205.5153 0002924  98.4075 261.7458 14.62455305765345
CALIPSO                 
1 29108U 06016B   20258.52057013  .00000083  00000-0  25712-4 0  9995
2 29108  98.2363 205.2803 0001263  79.0678 281.0665 14.62438356765336
HINODE (SOLAR-B)        
1 29479U 06041A   20258.55047300  .00000068  00000-0  21749-4 0  9994
2 29479  98.1597 269.6406 0018476  88.5691 271.7628 14.65084651746930
SJ-6C                   
1 29505U 06046A   20258.48294317  .00000598  00000-0  60081-4 0  9993
2 29505  97.8162 271.8938 0006318  94.5134 265.6800 14.94917863756915
SJ-6D                   
1 29506U 06046B   20258.57776150 -.00000266  00000-0 -19865-4 0  9992
2 29506  97.8359 272.1360 0002409 151.4908 208.6447 14.93526895756471
AGILE                   
1 31135U 07013A   20258.27190165  .00002100  00000-0  29363-4 0  9992
2 31135   2.4670 219.3303 0011613 126.1743 233.9386 15.32508861378305
AIM                     
1 31304U 07015A   20258.41779635  .00000570  00000-0  35598-4 0  9999
2 31304  97.8937 144.4717 0006509  61.5057 298.6828 15.13713386734148
FGRST (GLAST)           
1 33053U 08029A   20258.31185355  .00000449  00000-0  88300-5 0  9992
2 33053  25.5821 215.2417 0012073 317.1894  42.7700 15.11368283676790
WISE                    
1 36119U 09071A   20258.53870636  .00000568  00000-0  21949-4 0  9990
2 36119  97.3215 293.5850 0004228  77.8577 282.3138 15.30229686597424
SDO                     
1 36395U 10005A   20258.18332546 -.00000075  00000-0  00000-0 0  9994
2 36395  30.4672 119.8171 0001406  14.8193 183.1219  1.00275384 38988
CRYOSAT 2               
1 36508U 10013A   20258.57517808  .00000034  00000-0  78072-5 0  9991
2 36508  92.0250 129.3457 0003574 268.7996  91.2802 14.51902264553200
X-SAT                   
1 37389U 11015C   20258.58920949 -.00000032  00000-0  43694-5 0  9998
2 37389  98.4264 310.3429 0014766  34.0217 326.1907 14.24381397488974
GCOM-W1 (SHIZUKU)       
1 38337U 12025A   20258.41105358  .00000009  00000-0  12101-4 0  9996
2 38337  98.2012 197.1128 0002518  68.4629  40.3201 14.57077033442960
NUSTAR                  
1 38358U 12031A   20258.57863055  .00000919  00000-0  22231-4 0  9993
2 38358   6.0273 341.6088 0011185  95.4944 264.6461 14.88338741449315
NEOSSAT                 
1 39089U 13009D   20258.55385765  .00000057  00000-0  35603-4 0  9996
2 39089  98.4617  98.5986 0011905  28.1044 332.0781 14.34521559395321
IRIS                    
1 39197U 13033A   20258.52146757  .00000067  00000-0  16348-4 0  9992
2 39197  97.9616  79.6476 0026536 303.6300  56.2379 14.78751044389244
HISAKI (SPRINT-A)       
1 39253U 13049A   20258.42260174  .00000098  00000-0  42530-4 0  9997
2 39253  29.7203 102.1664 0137543 262.6946  95.7974 13.55227794347128
CASSIOPE                
1 39265U 13055A   20258.55344681  .00004248  00000-0  11796-3 0  9997
2 39265  80.9664 221.2507 0659875  42.4410 322.5892 14.29816146360534
STSAT-3                 
1 39422U 13066G   20258.56795155  .00000107  00000-0  16605-4 0  9996
2 39422  97.5062 286.8294 0021512 255.9896 103.8931 14.89856085370408
SWARM B                 
1 39451U 13067A   20258.50165951  .00000284  00000-0  10966-4 0  9998
2 39451  87.7481 253.1318 0001899 112.7254 247.4192 15.21780999363508
SWARM A                 
1 39452U 13067B   20258.59996726  .00000866  00000-0  17557-4 0  9999
2 39452  87.3562  98.2733 0003385  79.5902 280.5737 15.44704566382949
SWARM C                 
1 39453U 13067C   20258.59988909  .00000877  00000-0  17781-4 0  9995
2 39453  87.3415  99.0502 0003383  79.6261 280.5378 15.44705306382907
BRITE-CA1 (TORONTO)     
1 40020U 14033L   20258.51263903  .00000020  00000-0  11522-4 0  9990
2 40020  97.7322  81.6303 0088101 147.6955 212.9689 14.66658867333704
OCO 2                   
1 40059U 14035A   20258.59271544  .00000004  00000-0  10960-4 0  9999
2 40059  98.2003 198.0457 0001344  76.2003 283.9345 14.57113760330001
BRITE-PL2 (HEWELIUSZ)   
1 40119U 14049B   20258.49408700  .00000086  00000-0  16569-4 0  9997
2 40119  97.8948 349.8379 0017591 173.5010 186.6436 14.84531873328905
RESURS P2               
1 40360U 14087A   20258.49619096  .00000353  00000-0  13168-4 0  9998
2 40360  97.2436 345.5645 0007937 217.8313 152.7675 15.33647268319965
MMS 1                   
1 40482U 15011A   20256.02083333 -.00001511  00000-0  00000+0 0  9991
2 40482  30.1499 119.7099 8548325  23.7739   7.9884  0.28646825 11467
MMS 2                   
1 40483U 15011B   20256.02083333 -.00001510  00000-0  00000+0 0  9991
2 40483  30.1487 119.7110 8545795  23.7758   7.9783  0.28646777 11440
MMS 3                   
1 40484U 15011C   20256.02083333 -.00001512  00000-0  00000+0 0  9994
2 40484  30.1536 119.6886 8547772  23.8087   7.9522  0.28634589 11447
MMS 4                   
1 40485U 15011D   20256.02083333 -.00001511  00000-0  00000+0 0  9994
2 40485  30.1494 119.7231 8547521  23.7781   7.9389  0.28646742 11443
ASTROSAT                
1 40930U 15052A   20258.20356856  .00000706  00000-0  10075-4 0  9991
2 40930   5.9970  69.7091 0007985  83.5085 276.5952 14.76329318268352
DAMPE                   
1 41173U 15078A   20258.47973188  .00000019  00000-0  36791-5 0  9992
2 41173  97.3303 250.4511 0012455 303.2956 174.0695 15.23896996263951
PISAT                   
1 41784U 16059B   20258.51470499  .00000054  00000-0  19471-4 0  9996
2 41784  98.0102 312.5507 0032636  35.0045 325.3294 14.63536961211934
HXMT (HUIYAN)           
1 42758U 17034A   20258.50714645  .00000097  00000-0  19727-4 0  9996
2 42758  43.0189 267.4381 0011197 234.0459 261.6820 15.08887226179324
FLYING LAPTOP           
1 42831U 17042G   20258.57756313 -.00000036  00000-0  17402-5 0  9995
2 42831  97.5076 136.2640 0013975 354.8550   5.2524 14.91155548172574
PICSAT                  
1 43132U 18004X   20258.25250730  .00001098  00000-0  47379-4 0  9999
2 43132  97.4408 329.0291 0011190 100.3856 259.8643 15.24614053148582
ZHANGZHENG-1 (CSES)     
1 43194U 18015C   20258.46010269  .00000696  00000-0  34597-4 0  9994
2 43194  97.4463  22.4305 0015921 151.2682 274.2984 15.20847239145192
ICON                    
1 44628U 19068A   20258.13639429  .00000409  00000-0  19824-4 0  9993
2 44628  26.9892 174.9294 0018950 212.6159 147.3228 14.91730867 50689
